[{"OBJECT_NAME":"SHIYAN-1 (SY-1)","OBJECT_ID":"2004-012A","EPOCH":"2026-03-09T17:40:34.066560","MEAN_MOTION":15.31043463,"ECCENTRICITY":0.00058726,"INCLINATION":97.8764,"RA_OF_ASC_NODE":140.5238,"ARG_OF_PERICENTER":23.6952,"MEAN_ANOMALY":336.4557,"EPHEMERIS_TYPE":0,"CLASSIFICATION_TYPE":"U","NORAD_CAT_ID":28220,"ELEMENT_SET_NO":999,"REV_AT_EPOCH":19586,"BSTAR":0.00054854449,"MEAN_MOTION_DOT":0.00016393,"MEAN_MOTION_DDOT":0},{"OBJECT_NAME":"STARLINK-34998","OBJECT_ID":"2025-195S","EPOCH":"2026-03-09T22:35:44.326464","MEAN_MOTION":15.30185825,"ECCENTRICITY":0.00015209,"INCLINATION":53.1579,"RA_OF_ASC_NODE":256.9093,"ARG_OF_PERICENTER":78.6189,"MEAN_ANOMALY":281.4983,"EPHEMERIS_TYPE":0,"CLASSIFICATION_TYPE":"U","NORAD_CAT_ID":65474,"ELEMENT_SET_NO":999,"REV_AT_EPOCH":3001,"BSTAR":0.0011339877,"MEAN_MOTION_DOT":0.00033363,"MEAN_MOTION_DDOT":0}]
